{"spkid": "50512725", "covariance": {"data": [["5.117219061551853E-13", "-6.355669644286243E-13", "-1.275935506688576E-10", "4.957732024984464E-10", "-5.686689878395829E-10", "-1.154255826599046E-11"], ["-6.355669644286243E-13", "7.893911900970395E-13", "1.585398794336797E-10", "-6.168038187010573E-10", "7.074001919192175E-10", "1.435274140985254E-11"], ["-1.275935506688576E-10", "1.585398794336797E-10", "3.252596734606534E-8", "-1.347158249396802E-7", "1.535217341763541E-7", "3.055411419490689E-9"], ["4.957732024984464E-10", "-6.168038187010573E-10", "-1.347158249396802E-7", "1.308708919067388E-6", "-1.389142472514661E-6", "-2.528961639522383E-8"], ["-5.686689878395829E-10", "7.074001919192175E-10", "1.535217341763541E-7", "-1.389142472514661E-6", "1.480519236500568E-6", "2.709053316836254E-8"], ["-1.154255826599046E-11", "1.435274140985254E-11", "3.055411419490689E-9", "-2.528961639522383E-8", "2.709053316836254E-8", "5.039271860990382E-10"]], "elements": [{"label": "e", "value": ".2868631522657485", "title": "eccentricity", "units": null, "sigma": 7.15347402424294e-07, "name": "e"}, {"value": ".8166526082114118", "title": "perihelion distance", "units": "au", "name": "q", "sigma": 8.88476893395118e-07, "label": "q"}, {"name": "tp", "sigma": 0.000180349569852732, "units": "TDB", "value": "2456554.646472778531", "title": "time of perihelion passage", "label": "tp"}, {"label": "node", "sigma": 0.00114398816386682, "name": "om", "units": "deg", "value": "30.67764512652179", "title": "longitude of the ascending node"}, {"units": "deg", "value": "65.00742242729513", "title": "argument of perihelion", "sigma": 0.00121676589223259, "name": "w", "label": "peri"}, {"label": "i", "name": "i", "sigma": 2.24483225676004e-05, "title": "inclination", "value": ".6333357627169945", "units": "deg"}], "labels": ["e", "q", "tp", "node", "peri", "i"], "epoch": "2456663.5"}, "elements": [{"title": "eccentricity", "value": ".2872946825853314", "units": null, "sigma": "7.2506E-7", "name": "e", "label": "e"}, {"label": "a", "units": "au", "value": "1.147468577224265", "title": "semi-major axis", "name": "a", "sigma": "3.2638E-8"}, {"label": "q", "sigma": "8.5505E-7", "name": "q", "value": ".8178069565539778", "title": "perihelion distance", "units": "au"}, {"units": "deg", "value": ".6390427930916377", "title": "inclination; angle with respect to x-y ecliptic plane", "sigma": "2.1843E-5", "name": "i", "label": "i"}, {"units": "deg", "title": "longitude of the ascending node", "value": "30.42790329411352", "name": "om", "sigma": ".0011159", "label": "node"}, {"label": "peri", "units": "deg", "title": "argument of perihelion", "value": "64.82587002243875", "sigma": ".0011911", "name": "w"}, {"label": "M", "title": "mean anomaly", "value": "126.3611191201964", "units": "deg", "sigma": ".00038872", "name": "ma"}, {"title": "time of perihelion passage", "value": "2461042.912925978202", "units": "TDB", "sigma": ".0004781", "name": "tp", "label": "tp"}, {"label": "period", "value": "448.962046576081", "title": "sidereal orbital period", "units": "d", "name": "per", "sigma": "1.9155E-5"}, {"sigma": "3.4211E-8", "name": "n", "title": "mean motion", "value": ".8018495165581763", "units": "deg/d", "label": "n"}, {"label": "Q", "title": "aphelion distance", "value": "1.477130197894552", "units": "au", "sigma": "4.2014E-8", "name": "ad"}], "epoch": "2461200.5"}